LEMUR-1                 
1 40044U 14033AL  26165.39701490  .00001866  00000+0  21910-3 0  9992
2 40044  97.7870 315.2641 0049743  87.5629 273.1280 14.85237170645059
LEMUR-2-GREENBERG       
1 42837U 17042N   26165.47315977  .00015418  00000+0  51224-3 0  9996
2 42837  97.3808 346.1106 0008794  23.6410 336.5234 15.31255155487970
LEMUR-2-ANDIS           
1 42838U 17042P   26165.44344824  .00020470  00000+0  60850-3 0  9996
2 42838  97.3668 346.2560 0008448  22.2896 337.8713 15.34749708488038
LEMUR-2-MONSON          
1 42839U 17042Q   26165.47605066  .00013220  00000+0  48681-3 0  9991
2 42839  97.4069 346.0900 0006465  16.1216 344.0228 15.27948771487758
LEMUR-2-FURIAUS         
1 42840U 17042R   26165.46503986  .00016457  00000+0  56512-3 0  9997
2 42840  97.3761 344.0642 0008310  77.4587 282.7583 15.30173208487796
LEMUR-2-PETERG          
1 42841U 17042S   26165.49111976  .00019753  00000+0  60582-3 0  9999
2 42841  97.3977 350.5174 0003477   7.9062 352.2235 15.33795931488023
LEMUR-2-DEMBITZ         
1 42842U 17042T   26165.48500115  .00014809  00000+0  50828-3 0  9995
2 42842  97.3815 347.1057 0006999  38.1471 322.0264 15.30221090487932
LEMUR-2-ZACHARY         
1 42845U 17042W   26165.47884570  .00044305  00000+0  78729-3 0  9991
2 42845  97.3592 357.0586 0003114  43.4791 316.6705 15.50057207488786
LEMUR-2-AMANDA-SVANTE   
1 48269U 21034B   26165.16162597  .00034523  00000+0  10438-2 0  9990
2 48269  97.5769 243.3672 0001927 217.8791 142.2316 15.34138619280599
LEMUR-2-SPECIAL-K       
1 48273U 21034F   26165.20641983  .00150405  00000+0  15892-2 0  9998
2 48273  97.5656 251.8492 0003881 229.6783 130.4137 15.63693304281226
LEMUR-2-EMBRIONOVIS     
1 56970U 23084AQ  26165.33812404  .00013390  00000+0  36596-3 0  9996
2 56970  97.6282 309.4280 0007900 331.5537  28.5275 15.37487330167242
LEMUR-2-DEVERILL-M-T    
1 57391U 23100F   26165.57032869  .00023246  00000+0  59094-3 0  9997
2 57391  99.4470 203.5725 0006561  58.8709 301.3173 15.39638214160848
LEMUR-2-BASS            
1 58259U 23174D   26165.48661187  .00017348  00000+0  39468-3 0  9992
2 58259  97.3853 250.1608 0007503 170.9427 189.1957 15.43015535144947
LEMUR-2-JK0903EM1407    
1 58336U 23174CJ  26165.24163824  .00026461  00000+0  44756-3 0  9999
2 58336  97.3927 255.6288 0005817 128.0903 232.0874 15.51545398145275
LEMUR-2-MJR092620       
1 58340U 23174CN  26165.24391557  .00018996  00000+0  40704-3 0  9993
2 58340  97.3983 255.2185 0007045 126.2487 233.9413 15.44781393145195
LEMUR-2-NIMBUS2000      
1 58899U 24022A   26165.54461933  .00016103  00000+0  40571-3 0  9994
2 58899  97.4109  15.5134 0010244 124.0287 236.1933 15.39922834131867
LEMUR-2-VALHALLA        
1 58900U 24022B   26165.54028660  .00015160  00000+0  38606-3 0  9991
2 58900  97.4106  15.5012 0010804 120.3749 239.8566 15.39602672131863
LEMUR-2-CAEL            
1 58903U 24022E   26165.55234341  .00016435  00000+0  40103-3 0  9991
2 58903  97.4089  16.4446 0009278 105.2573 254.9700 15.40900746131938
LEMUR-2-JOHNNYTRUONG    
1 59146U 24043BA  26165.39247328  .00039679  00000+0  48566-3 0  9991
2 59146  97.5367 316.9228 0004706 184.6886 175.4327 15.60278720127606
LEMUR-2-TOMATOKECHUP    
1 60471U 24149D   26165.17575692  .00012135  00000+0  34861-3 0  9996
2 60471  97.3808 247.2145 0001147 181.7655 178.3585 15.35976496101707
LEMUR-2-STELLA          
1 60533U 24149BT  26165.16946749  .00012144  00000+0  71531-3 0  9994
2 60533  97.6746 247.6108 0001643  94.5801 265.5617 15.11753702100046
LEMUR-2-MARHISYAM       
1 60536U 24149BW  26165.61218361  .00010179  00000+0  60926-3 0  9991
2 60536  97.6890 248.5019 0003408 121.2667 238.8897 15.11217625100096
LEMUR-2-AHMED-ASRAR     
1 60576U 24149DN  26165.18574329  .00013012  00000+0  74724-3 0  9996
2 60576  97.7012 250.1543 0002009  47.8289 312.3111 15.12653994100111
LEMUR-2-LLOYD           
1 60577U 24149DP  26165.45652959  .00009889  00000+0  62576-3 0  9992
2 60577  97.6750 246.5838 0004714 147.4880 212.6640 15.09190906 99981
LEMUR-2-SQUIRRELCOMM    
1 60578U 24149DQ  26165.46694171  .00005421  00000+0  36480-3 0  9999
2 60578  97.6716 246.3866 0006695  69.8557 290.3390 15.07125128 99999
LEMUR-2-SIERRINI        
1 60579U 24149DR  26165.17158440  .00012055  00000+0  72698-3 0  9994
2 60579  97.6852 247.7498 0005598 174.4250 185.7043 15.10892403100009
LEMUR-2-WILSON          
1 62694U 25009CP  26165.48496654  .00002331  00000+0  21750-3 0  9995
2 62694  97.7025 243.9967 0004279  63.7028 296.4632 14.95153772 76950
LEMUR-2-STAR-FOX        
1 62696U 25009CR  26165.16246929  .00008097  00000+0  61451-3 0  9997
2 62696  97.6960 246.7924 0003559 118.7505 241.4077 15.02464841 77106
